[{"OBJECT_NAME":"ONEWEB-0463","OBJECT_ID":"2022-012AE","EPOCH":"2026-06-14T05:58:35.790240","MEAN_MOTION":13.1764885,"ECCENTRICITY":0.0001943,"INCLINATION":87.9134,"RA_OF_ASC_NODE":6.4642,"ARG_OF_PERICENTER":91.0244,"MEAN_ANOMALY":269.1111,"EPHEMERIS_TYPE":0,"CLASSIFICATION_TYPE":"U","NORAD_CAT_ID":51650,"ELEMENT_SET_NO":999,"REV_AT_EPOCH":21328,"BSTAR":0.0001845,"MEAN_MOTION_DOT":8.5e-07,"MEAN_MOTION_DDOT":0.0},{"OBJECT_NAME":"ONEWEB-0464","OBJECT_ID":"2022-012AF","EPOCH":"2026-06-14T03:09:06.223392","MEAN_MOTION":13.10372563,"ECCENTRICITY":0.0001594,"INCLINATION":87.8834,"RA_OF_ASC_NODE":36.8895,"ARG_OF_PERICENTER":75.6931,"MEAN_ANOMALY":284.4373,"EPHEMERIS_TYPE":0,"CLASSIFICATION_TYPE":"U","NORAD_CAT_ID":51651,"ELEMENT_SET_NO":999,"REV_AT_EPOCH":20892,"BSTAR":-0.0017598,"MEAN_MOTION_DOT":-6.02e-06,"MEAN_MOTION_DDOT":0.0},{"OBJECT_NAME":"ONEWEB-0468","OBJECT_ID":"2022-012AG","EPOCH":"2026-06-14T03:18:40.087872","MEAN_MOTION":13.10373811,"ECCENTRICITY":0.0001559,"INCLINATION":87.8834,"RA_OF_ASC_NODE":36.8829,"ARG_OF_PERICENTER":74.6856,"MEAN_ANOMALY":285.4444,"EPHEMERIS_TYPE":0,"CLASSIFICATION_TYPE":"U","NORAD_CAT_ID":51652,"ELEMENT_SET_NO":999,"REV_AT_EPOCH":20890,"BSTAR":-0.0016753000000000002,"MEAN_MOTION_DOT":-5.72e-06,"MEAN_MOTION_DDOT":0.0},{"OBJECT_NAME":"ONEWEB-0473","OBJECT_ID":"2022-012AH","EPOCH":"2026-06-14T04:47:06.602208","MEAN_MOTION":13.10370772,"ECCENTRICITY":0.0001819,"INCLINATION":87.8829,"RA_OF_ASC_NODE":36.8716,"ARG_OF_PERICENTER":78.6877,"MEAN_ANOMALY":281.4455,"EPHEMERIS_TYPE":0,"CLASSIFICATION_TYPE":"U","NORAD_CAT_ID":51653,"ELEMENT_SET_NO":999,"REV_AT_EPOCH":20891,"BSTAR":-0.0012034,"MEAN_MOTION_DOT":-4.07e-06,"MEAN_MOTION_DDOT":0.0},{"OBJECT_NAME":"ONEWEB-0474","OBJECT_ID":"2022-012AJ","EPOCH":"2026-06-14T02:45:12.571776","MEAN_MOTION":13.1036949,"ECCENTRICITY":0.0001633,"INCLINATION":87.8841,"RA_OF_ASC_NODE":36.8724,"ARG_OF_PERICENTER":73.5538,"MEAN_ANOMALY":286.5769,"EPHEMERIS_TYPE":0,"CLASSIFICATION_TYPE":"U","NORAD_CAT_ID":51654,"ELEMENT_SET_NO":999,"REV_AT_EPOCH":20889,"BSTAR":-0.00014895000000000002,"MEAN_MOTION_DOT":-3.9e-07,"MEAN_MOTION_DDOT":0.0},{"OBJECT_NAME":"ONEWEB-0475","OBJECT_ID":"2022-012AK","EPOCH":"2026-06-14T06:15:36.223488","MEAN_MOTION":13.17648982,"ECCENTRICITY":0.0001607,"INCLINATION":87.9134,"RA_OF_ASC_NODE":6.4548,"ARG_OF_PERICENTER":67.8235,"MEAN_ANOMALY":292.3067,"EPHEMERIS_TYPE":0,"CLASSIFICATION_TYPE":"U","NORAD_CAT_ID":51655,"ELEMENT_SET_NO":999,"REV_AT_EPOCH":21330,"BSTAR":1.4909e-05,"MEAN_MOTION_DOT":1.9e-07,"MEAN_MOTION_DDOT":0.0},{"OBJECT_NAME":"ONEWEB-0490","OBJECT_ID":"2022-138A","EPOCH":"2026-06-14T02:26:45.218400","MEAN_MOTION":13.19724854,"ECCENTRICITY":0.0001678,"INCLINATION":87.9172,"RA_OF_ASC_NODE":305.5814,"ARG_OF_PERICENTER":100.2395,"MEAN_ANOMALY":259.8927,"EPHEMERIS_TYPE":0,"CLASSIFICATION_TYPE":"U","NORAD_CAT_ID":54113,"ELEMENT_SET_NO":999,"REV_AT_EPOCH":17642,"BSTAR":8.8601e-05,"MEAN_MOTION_DOT":4.8e-07,"MEAN_MOTION_DDOT":0.0},{"OBJECT_NAME":"ONEWEB-0492","OBJECT_ID":"2022-138B","EPOCH":"2026-06-14T03:03:09.358560","MEAN_MOTION":13.19725238,"ECCENTRICITY":0.0001777,"INCLINATION":87.9165,"RA_OF_ASC_NODE":305.5781,"ARG_OF_PERICENTER":106.383,"MEAN_ANOMALY":253.7498,"EPHEMERIS_TYPE":0,"CLASSIFICATION_TYPE":"U","NORAD_CAT_ID":54114,"ELEMENT_SET_NO":999,"REV_AT_EPOCH":17643,"BSTAR":0.00018675,"MEAN_MOTION_DOT":8.8e-07,"MEAN_MOTION_DDOT":0.0},{"OBJECT_NAME":"ONEWEB-0495","OBJECT_ID":"2022-138C","EPOCH":"2026-06-14T02:31:18.124032","MEAN_MOTION":13.19725264,"ECCENTRICITY":0.000122,"INCLINATION":87.9168,"RA_OF_ASC_NODE":305.585,"ARG_OF_PERICENTER":105.1682,"MEAN_ANOMALY":254.9586,"EPHEMERIS_TYPE":0,"CLASSIFICATION_TYPE":"U","NORAD_CAT_ID":54115,"ELEMENT_SET_NO":999,"REV_AT_EPOCH":17641,"BSTAR":-5.6999999999999996e-05,"MEAN_MOTION_DOT":-1e-07,"MEAN_MOTION_DDOT":0.0},{"OBJECT_NAME":"ONEWEB-0497","OBJECT_ID":"2022-138D","EPOCH":"2026-06-14T02:49:29.980704","MEAN_MOTION":13.19724006,"ECCENTRICITY":0.0001783,"INCLINATION":87.9172,"RA_OF_ASC_NODE":305.5743,"ARG_OF_PERICENTER":99.7785,"MEAN_ANOMALY":260.3549,"EPHEMERIS_TYPE":0,"CLASSIFICATION_TYPE":"U","NORAD_CAT_ID":54116,"ELEMENT_SET_NO":999,"REV_AT_EPOCH":17640,"BSTAR":-3.9655000000000006e-05,"MEAN_MOTION_DOT":-3e-08,"MEAN_MOTION_DDOT":0.0},{"OBJECT_NAME":"ONEWEB-0499","OBJECT_ID":"2022-138E","EPOCH":"2026-06-14T02:25:37.238016","MEAN_MOTION":13.19726787,"ECCENTRICITY":0.0001609,"INCLINATION":87.9165,"RA_OF_ASC_NODE":305.5868,"ARG_OF_PERICENTER":95.5205,"MEAN_ANOMALY":264.6111,"EPHEMERIS_TYPE":0,"CLASSIFICATION_TYPE":"U","NORAD_CAT_ID":54117,"ELEMENT_SET_NO":999,"REV_AT_EPOCH":17641,"BSTAR":9.393e-05,"MEAN_MOTION_DOT":5.1e-07,"MEAN_MOTION_DDOT":0.0},{"OBJECT_NAME":"ONEWEB-0500","OBJECT_ID":"2022-138F","EPOCH":"2026-06-14T02:29:01.382208","MEAN_MOTION":13.19724239,"ECCENTRICITY":0.0001915,"INCLINATION":87.9175,"RA_OF_ASC_NODE":305.5804,"ARG_OF_PERICENTER":100.2003,"MEAN_ANOMALY":259.9346,"EPHEMERIS_TYPE":0,"CLASSIFICATION_TYPE":"U","NORAD_CAT_ID":54118,"ELEMENT_SET_NO":999,"REV_AT_EPOCH":17642,"BSTAR":5.6723000000000006e-05,"MEAN_MOTION_DOT":3.6e-07,"MEAN_MOTION_DDOT":0.0},{"OBJECT_NAME":"ONEWEB-0501","OBJECT_ID":"2022-138G","EPOCH":"2026-06-14T03:12:14.026752","MEAN_MOTION":13.19723175,"ECCENTRICITY":0.0001408,"INCLINATION":87.9174,"RA_OF_ASC_NODE":305.5741,"ARG_OF_PERICENTER":100.396,"MEAN_ANOMALY":259.7331,"EPHEMERIS_TYPE":0,"CLASSIFICATION_TYPE":"U","NORAD_CAT_ID":54119,"ELEMENT_SET_NO":999,"REV_AT_EPOCH":17640,"BSTAR":-4.4177e-05,"MEAN_MOTION_DOT":-5e-08,"MEAN_MOTION_DDOT":0.0},{"OBJECT_NAME":"ONEWEB-0502","OBJECT_ID":"2022-138H","EPOCH":"2026-06-14T02:51:45.651168","MEAN_MOTION":13.19723494,"ECCENTRICITY":0.0001634,"INCLINATION":87.9175,"RA_OF_ASC_NODE":305.5658,"ARG_OF_PERICENTER":94.4712,"MEAN_ANOMALY":265.6607,"EPHEMERIS_TYPE":0,"CLASSIFICATION_TYPE":"U","NORAD_CAT_ID":54120,"ELEMENT_SET_NO":999,"REV_AT_EPOCH":17642,"BSTAR":-8.630500000000001e-05,"MEAN_MOTION_DOT":-2.2e-07,"MEAN_MOTION_DDOT":0.0},{"OBJECT_NAME":"ONEWEB-0503","OBJECT_ID":"2022-138J","EPOCH":"2026-06-13T21:08:19.347072","MEAN_MOTION":13.19724506,"ECCENTRICITY":0.0001928,"INCLINATION":87.9176,"RA_OF_ASC_NODE":305.6192,"ARG_OF_PERICENTER":90.4472,"MEAN_ANOMALY":269.6882,"EPHEMERIS_TYPE":0,"CLASSIFICATION_TYPE":"U","NORAD_CAT_ID":54121,"ELEMENT_SET_NO":999,"REV_AT_EPOCH":17638,"BSTAR":7.317200000000001e-05,"MEAN_MOTION_DOT":4.2e-07,"MEAN_MOTION_DDOT":0.0},{"OBJECT_NAME":"ONEWEB-0504","OBJECT_ID":"2022-138K","EPOCH":"2026-06-14T02:17:39.637824","MEAN_MOTION":13.19725375,"ECCENTRICITY":0.0001653,"INCLINATION":87.9175,"RA_OF_ASC_NODE":305.5812,"ARG_OF_PERICENTER":93.74,"MEAN_ANOMALY":266.3922,"EPHEMERIS_TYPE":0,"CLASSIFICATION_TYPE":"U","NORAD_CAT_ID":54122,"ELEMENT_SET_NO":999,"REV_AT_EPOCH":17642,"BSTAR":-7.5434000000000005e-06,"MEAN_MOTION_DOT":1e-07,"MEAN_MOTION_DDOT":0.0}]