ONEWEB-0463             
1 51650U 22012AE  26165.24902535  .00000085  00000+0  18450-3 0  9997
2 51650  87.9134   6.4642 0001943  91.0244 269.1111 13.17648850213280
ONEWEB-0464             
1 51651U 22012AF  26165.13132203 -.00000602  00000+0 -17598-2 0  9991
2 51651  87.8834  36.8895 0001594  75.6931 284.4373 13.10372563208920
ONEWEB-0468             
1 51652U 22012AG  26165.13796398 -.00000572  00000+0 -16753-2 0  9991
2 51652  87.8834  36.8829 0001559  74.6856 285.4444 13.10373811208909
ONEWEB-0473             
1 51653U 22012AH  26165.19938197 -.00000407  00000+0 -12034-2 0  9998
2 51653  87.8829  36.8716 0001819  78.6877 281.4455 13.10370772208917
ONEWEB-0474             
1 51654U 22012AJ  26165.11472884 -.00000039  00000+0 -14895-3 0  9996
2 51654  87.8841  36.8724 0001633  73.5538 286.5769 13.10369490208899
ONEWEB-0475             
1 51655U 22012AK  26165.26083592  .00000019  00000+0  14909-4 0  9990
2 51655  87.9134   6.4548 0001607  67.8235 292.3067 13.17648982213305
ONEWEB-0490             
1 54113U 22138A   26165.10191225  .00000048  00000+0  88601-4 0  9999
2 54113  87.9172 305.5814 0001678 100.2395 259.8927 13.19724854176424
ONEWEB-0492             
1 54114U 22138B   26165.12719165  .00000088  00000+0  18675-3 0  9998
2 54114  87.9165 305.5781 0001777 106.3830 253.7498 13.19725238176435
ONEWEB-0495             
1 54115U 22138C   26165.10507088 -.00000010  00000+0 -57000-4 0  9999
2 54115  87.9168 305.5850 0001220 105.1682 254.9586 13.19725264176419
ONEWEB-0497             
1 54116U 22138D   26165.11770811 -.00000003  00000+0 -39655-4 0  9995
2 54116  87.9172 305.5743 0001783  99.7785 260.3549 13.19724006176404
ONEWEB-0499             
1 54117U 22138E   26165.10112544  .00000051  00000+0  93930-4 0  9995
2 54117  87.9165 305.5868 0001609  95.5205 264.6111 13.19726787176414
ONEWEB-0500             
1 54118U 22138F   26165.10348822  .00000036  00000+0  56723-4 0  9998
2 54118  87.9175 305.5804 0001915 100.2003 259.9346 13.19724239176424
ONEWEB-0501             
1 54119U 22138G   26165.13349568 -.00000005  00000+0 -44177-4 0  9998
2 54119  87.9174 305.5741 0001408 100.3960 259.7331 13.19723175176402
ONEWEB-0502             
1 54120U 22138H   26165.11927837 -.00000022  00000+0 -86305-4 0  9997
2 54120  87.9175 305.5658 0001634  94.4712 265.6607 13.19723494176429
ONEWEB-0503             
1 54121U 22138J   26164.88077948  .00000042  00000+0  73172-4 0  9998
2 54121  87.9176 305.6192 0001928  90.4472 269.6882 13.19724506176389
ONEWEB-0504             
1 54122U 22138K   26165.09559766  .00000010  00000+0 -75434-5 0  9996
2 54122  87.9175 305.5812 0001653  93.7400 266.3922 13.19725375176428
